{"type": "FeatureCollection", "features": [{"type": "Feature", "properties": {"name": "Plot 1", "plot_num": 1, "acres": 1.0}, "geometry": {"type": "Polygon", "coordinates": [[[-88.50410355640754, 44.316417535034134], [-88.50414122092705, 44.31642831476823], [-88.50415628673485, 44.316471433704635], [-88.50417888544656, 44.31653611210923], [-88.50432111046236, 44.31657360388884], [-88.50431447771679, 44.31661157024793], [-88.50431447771679, 44.31666007905138], [-88.50431017320028, 44.31668163851958], [-88.50428685706915, 44.31676922385914], [-88.5042735848099, 44.316804835480724], [-88.50420901706217, 44.31696191160618], [-88.50322220665103, 44.31689184333453], [-88.50373444411635, 44.316293568091986]]]}}, {"type": "Feature", "properties": {"name": "Plot 2", "plot_num": 2, "acres": 1.02}, "geometry": {"type": "Polygon", "coordinates": [[[-88.50431017320028, 44.31668163851958], [-88.50431447771679, 44.31666546891843], [-88.5043220106207, 44.31657384117858], [-88.50432111046236, 44.31657360388884], [-88.5043220106207, 44.31656845131153], [-88.5043822738519, 44.31656845131153], [-88.50448773450653, 44.31654689184333], [-88.50455553064165, 44.316503772906934], [-88.50460826096896, 44.316466043837586], [-88.50466852420017, 44.316325907294285], [-88.50487631864365, 44.31644834880236], [-88.50495477454844, 44.31650916277398], [-88.50503763649137, 44.316580309019045], [-88.50511296553037, 44.316649299317284], [-88.5051630757172, 44.316731553375305], [-88.5051958274733, 44.31679482572763], [-88.5052410248967, 44.31686489399928], [-88.50524275262696, 44.31686370723956], [-88.50531635393573, 44.31704275961193], [-88.50420901706217, 44.31696730147323], [-88.50426928029339, 44.31681638519583], [-88.5042735848099, 44.316804835480724], [-88.50428434610119, 44.31677865612648], [-88.50428685706915, 44.31676922385914], [-88.50429941190899, 44.31673553719008]]]}}, {"type": "Feature", "properties": {"name": "Plot 3", "plot_num": 3, "acres": 0.98}, "geometry": {"type": "Polygon", "coordinates": [[[-88.50503763649137, 44.316580309019045], [-88.50492464293283, 44.31647682357168], [-88.50487631864365, 44.31644834880236], [-88.50486437970162, 44.316439094502336], [-88.50466099129628, 44.31631512756019], [-88.50457812935335, 44.316239669421485], [-88.50454799773775, 44.31622888968739], [-88.50461579387286, 44.316207330219186], [-88.50471372162359, 44.316207330219186], [-88.50488697841332, 44.316212720086234], [-88.50498367987737, 44.31621422423518], [-88.50574572945813, 44.316239669421485], [-88.50574572945813, 44.31631512756019], [-88.50573066365033, 44.31671397772188], [-88.5056553346113, 44.31671936758893], [-88.50542934749426, 44.31673553719008], [-88.50524275262696, 44.31686370723956], [-88.5052410248967, 44.31685950413223], [-88.5051630757172, 44.316731553375305], [-88.50512049843428, 44.316649299317284], [-88.50506776810697, 44.31660618038088]]]}}, {"type": "Feature", "properties": {"name": "Plot 4", "plot_num": 4, "acres": 1.05}, "geometry": {"type": "Polygon", "coordinates": [[[-88.50498367987737, 44.31621422423518], [-88.50461579387286, 44.31620194035214], [-88.50454799773775, 44.31622888968739], [-88.50441993837141, 44.316212720086234], [-88.5043220106207, 44.316234279554436], [-88.50426928029339, 44.31624505928853], [-88.50421654996606, 44.31628278835788], [-88.5038926350983, 44.31610492274524], [-88.50410844743993, 44.3158483548559], [-88.5043973396597, 44.31554437657204], [-88.5043721369218, 44.3155348683644], [-88.50437539398607, 44.3155309962128], [-88.5043822738519, 44.315533596837945], [-88.50438809967949, 44.315527575762125], [-88.50523349199281, 44.31621810995328]]]}}, {"type": "Feature", "properties": {"name": ".87 north plot 5", "plot_num": 5, "acres": 0.87}, "geometry": {"type": "Polygon", "coordinates": [[[-88.50321467374712, 44.31689723320158], [-88.50255931110767, 44.316854114265176], [-88.50326740407444, 44.316185770750984], [-88.50371937830855, 44.31630434782608]]]}}, {"type": "Feature", "properties": {"name": ".82 North road facing plot 6", "plot_num": 6, "acres": 0.83}, "geometry": {"type": "Polygon", "coordinates": [[[-88.50231825818281, 44.31681099532878], [-88.50109792775073, 44.31674631692418], [-88.50109792775073, 44.31644987423643], [-88.50255931110767, 44.316557671577435]]]}}, {"type": "Feature", "properties": {"name": "1.35 north side plot 7", "plot_num": 7, "acres": 1.35}, "geometry": {"type": "Polygon", "coordinates": [[[-88.50111299355854, 44.31644987423643], [-88.50110546065463, 44.31608336327704], [-88.50188888266041, 44.31613187208048], [-88.5018889935667, 44.3161298882171], [-88.50292089049496, 44.31619116061803], [-88.50256684401158, 44.316557671577435]]]}}, {"type": "Feature", "properties": {"name": "1.35 plot 8 internal north facing ", "plot_num": 8, "acres": 1.34}, "geometry": {"type": "Polygon", "coordinates": [[[-88.50292089049496, 44.316185770750984], [-88.50200187621894, 44.316126482213434], [-88.50203200783454, 44.315592885375494], [-88.50279183279197, 44.315640679859214], [-88.50339912862646, 44.315683187853146]]]}}, {"type": "Feature", "properties": {"name": ".94 Plot 9north side facing", "plot_num": 9, "acres": 0.94}, "geometry": {"type": "Polygon", "coordinates": [[[-88.5018889935667, 44.3161298882171], [-88.50110546065463, 44.31608336327704], [-88.50111299355854, 44.31554437657204], [-88.50191901427603, 44.315592885375494]]]}}, {"type": "Feature", "properties": {"name": "1.29 Plot 11 internal north facing", "plot_num": 11, "acres": 1.3}, "geometry": {"type": "Polygon", "coordinates": [[[-88.50339912862646, 44.315683187853146], [-88.50340299634468, 44.31567912324829], [-88.50279183279197, 44.315640679859214], [-88.50203200783454, 44.31558749550844], [-88.50205458613188, 44.315215930635766], [-88.50208323158108, 44.31521721164211], [-88.50377210863586, 44.31531261228889], [-88.50341806215248, 44.31568451311534]]]}}, {"type": "Feature", "properties": {"name": ".7 Plot 12 east facing against property", "plot_num": 12, "acres": 0.7}, "geometry": {"type": "Polygon", "coordinates": [[[-88.50111945770321, 44.31548502036124], [-88.50112052646243, 44.31548508803449], [-88.50115819098194, 44.31513474667624], [-88.50115761113653, 44.31513468116807], [-88.50115819098194, 44.315129356809194], [-88.50195667879554, 44.315210204814946], [-88.50191148137212, 44.31558749550844], [-88.50111299355854, 44.31554437657204]]]}}, {"type": "Feature", "properties": {"name": ".7 PLot 13 LMS west facing", "plot_num": 13, "acres": 0.69}, "geometry": {"type": "Polygon", "coordinates": [[[-88.5043721369218, 44.3155348683644], [-88.50410844743993, 44.3158483548559], [-88.50388510219439, 44.31608336327704], [-88.50341806215248, 44.315975565936036], [-88.50398302994512, 44.315388070427595]]]}}, {"type": "Feature", "properties": {"name": ".7 Plot 14 LMS west facing", "plot_num": 14, "acres": 0.67}, "geometry": {"type": "Polygon", "coordinates": [[[-88.50438809967949, 44.315527575762125], [-88.5043822738519, 44.31552281710384], [-88.50437539398607, 44.3155309962128], [-88.50398302994512, 44.315382680560546], [-88.50451033321824, 44.3147951850521], [-88.50489451131723, 44.31494071146245], [-88.50444253708312, 44.31545813869924], [-88.50445006998702, 44.31546352856629]]]}}, {"type": "Feature", "properties": {"name": ".6 Plot 15 LMS west facing", "plot_num": 15, "acres": 0.58}, "geometry": {"type": "Polygon", "coordinates": [[[-88.50497737326015, 44.3148059647862], [-88.50459319516115, 44.31467121810995], [-88.50502257068355, 44.314159180740205], [-88.50542934749426, 44.314331656485805], [-88.50517322876159, 44.31461731943945]]]}}, {"type": "Feature", "properties": {"name": ".55 Plot 16 LMS west facing", "plot_num": 16, "acres": 0.53}, "geometry": {"type": "Polygon", "coordinates": [[[-88.50503010358746, 44.314153790873156], [-88.50570053203472, 44.313657923104564], [-88.50587378882446, 44.31383039885016], [-88.50586625592055, 44.31384656845131], [-88.50543688039815, 44.314331656485805]]]}}, {"type": "Feature", "properties": {"name": ".59 Plot 17 corner plot cul de sac", "plot_num": 17, "acres": 0.55}, "geometry": {"type": "Polygon", "coordinates": [[[-88.50564780170741, 44.31360402443406], [-88.50552727524497, 44.313507006827166], [-88.50542934749426, 44.31355551563061], [-88.50536155135914, 44.31360941430111], [-88.50530882103183, 44.31370104204096], [-88.50534648555133, 44.31331836148041], [-88.50617510498053, 44.31337226015091], [-88.50615250626882, 44.31359324469996], [-88.50613744046102, 44.31360941430111], [-88.50614497336493, 44.31353395616241], [-88.50588132172837, 44.31383039885016]]]}}, {"type": "Feature", "properties": {"name": ".7 Plot 18 south external", "plot_num": 18, "acres": 0.7}, "geometry": {"type": "Polygon", "coordinates": [[[-88.50533895264743, 44.31332375134746], [-88.50530882103183, 44.313690262306864], [-88.50515063004988, 44.31382500898311], [-88.50464624147192, 44.31379269002761], [-88.50464738818826, 44.31377320346486], [-88.50468359000797, 44.31329141214516]]]}}, {"type": "Feature", "properties": {"name": ".76 Plot 19 south external", "plot_num": 19, "acres": 0.77}, "geometry": {"type": "Polygon", "coordinates": [[[-88.50464738818826, 44.31377320346486], [-88.50464592548848, 44.31379266978081], [-88.50464624147192, 44.31379269002761], [-88.50464592548848, 44.31379805964786], [-88.5039679641373, 44.31377111031261], [-88.50399056284901, 44.31325907294286], [-88.50467605710408, 44.31328602227811]]]}}, {"type": "Feature", "properties": {"name": ".75 Plot 20 internal west", "plot_num": 20, "acres": 0.76}, "geometry": {"type": "Polygon", "coordinates": [[[-88.50480411647041, 44.31409450233561], [-88.50472125452748, 44.31419690980955], [-88.5039528983295, 44.31409450233561], [-88.50397549704121, 44.31377650017966], [-88.50515816295379, 44.31383039885016]]]}}, {"type": "Feature", "properties": {"name": ".66 Plot 21 internal ", "plot_num": 21, "acres": 0.65}, "geometry": {"type": "Polygon", "coordinates": [[[-88.50371937830855, 44.314423284225654], [-88.5039528983295, 44.314099892202655], [-88.50472125452748, 44.31420229967661], [-88.5043822738519, 44.3146011498383]]]}}, {"type": "Feature", "properties": {"name": ".74 Plot 22 internal", "plot_num": 22, "acres": 0.73}, "geometry": {"type": "Polygon", "coordinates": [[[-88.50404986272669, 44.315011804352814], [-88.50405082608023, 44.315010779734095], [-88.50379897296784, 44.31496532302404], [-88.50322973955494, 44.3148598634567], [-88.50354289181317, 44.31446508485647], [-88.50431447771679, 44.3147305066475], [-88.50407342479193, 44.31501616960115]]]}}, {"type": "Feature", "properties": {"name": ".71 Plot 23 internal north/west", "plot_num": 23, "acres": 0.7}, "geometry": {"type": "Polygon", "coordinates": [[[-88.50377210863586, 44.31530722242184], [-88.50291335759105, 44.3152587136184], [-88.50322785271894, 44.31486224211581], [-88.50379897296784, 44.31496532302404], [-88.50404986272669, 44.315011804352814]]]}}, {"type": "Feature", "properties": {"name": "1.11 Plot 24 internal", "plot_num": 24, "acres": 1.1}, "geometry": {"type": "Polygon", "coordinates": [[[-88.50322785271894, 44.31486224211581], [-88.50321467374712, 44.3148598634567], [-88.50291335759105, 44.3152587136184], [-88.50241431292085, 44.315221407652864], [-88.50271499112165, 44.31467121810995], [-88.50286816016765, 44.314396334890404], [-88.50354612151881, 44.314461013295], [-88.50354289181317, 44.31446508485647], [-88.50353105571101, 44.314461013295], [-88.50322973955494, 44.3148598634567]]]}}, {"type": "Feature", "properties": {"name": ".97 Plot 25 internal", "plot_num": 25, "acres": 0.97}, "geometry": {"type": "Polygon", "coordinates": [[[-88.50208323158108, 44.31521721164211], [-88.50205460654625, 44.315215594681995], [-88.50205458613188, 44.315215930635766], [-88.50204707364236, 44.315215594681995], [-88.50221279752819, 44.3143424362199], [-88.50286816016765, 44.314390945023355], [-88.50271499112165, 44.31467121810995], [-88.50240865302963, 44.31522098454904], [-88.50241431292085, 44.315221407652864], [-88.50240865302963, 44.31523176428315]]]}}, {"type": "Feature", "properties": {"name": "1.06 Plot 26 internal", "plot_num": 26, "acres": 1.08}, "geometry": {"type": "Polygon", "coordinates": [[[-88.5022504620477, 44.314272367948256], [-88.50228812656721, 44.31393280632411], [-88.50377210863586, 44.314067553000356], [-88.50377210863586, 44.31408911246856], [-88.5035385886149, 44.3144071146245]]]}}, {"type": "Feature", "properties": {"name": "1.17 Plot 27 internal", "plot_num": 27, "acres": 1.17}, "geometry": {"type": "Polygon", "coordinates": [[[-88.50377210863586, 44.31406216313331], [-88.50228812656721, 44.31393280632411], [-88.50230319237501, 44.313598634567015], [-88.50379470734757, 44.31367948257276]]]}}, {"type": "Feature", "properties": {"name": "1.39 Plot 28 external south", "plot_num": 28, "acres": 1.4}, "geometry": {"type": "Polygon", "coordinates": [[[-88.50379470734757, 44.31367409270571], [-88.50230319237501, 44.31359324469996], [-88.50234838979843, 44.313162055335965], [-88.50380977315537, 44.31324290334172]]]}}, {"type": "Feature", "properties": {"name": "1.01 Plot 29 external south", "plot_num": 29, "acres": 1.01}, "geometry": {"type": "Polygon", "coordinates": [[[-88.50221279752819, 44.31368487243981], [-88.50133144777169, 44.31363636363636], [-88.5013615793873, 44.31311893639957], [-88.5022504620477, 44.313162055335965]]]}}, {"type": "Feature", "properties": {"name": "1.01 Plot 30 internal", "plot_num": 30, "acres": 1.01}, "geometry": {"type": "Polygon", "coordinates": [[[-88.50212993558527, 44.31423463887891], [-88.50128625034827, 44.314159180740205], [-88.50133144777169, 44.31364714337046], [-88.50221279752819, 44.313690262306864]]]}}, {"type": "Feature", "properties": {"name": ".68 Plot 31 internal", "plot_num": 31, "acres": 0.68}, "geometry": {"type": "Polygon", "coordinates": [[[-88.50198650097221, 44.31470148854428], [-88.50198681041114, 44.3146981674452], [-88.50159439867299, 44.314666078934394], [-88.50123352002096, 44.3146334890406], [-88.50128625034827, 44.31424002874596], [-88.50206967235405, 44.314310097017604], [-88.50200940912285, 44.31470355731225]]]}}, {"type": "Feature", "properties": {"name": ".7 Plot 32 internal", "plot_num": 32, "acres": 0.7}, "geometry": {"type": "Polygon", "coordinates": [[[-88.50115819098194, 44.3150323392023], [-88.50119585550145, 44.3146334890406], [-88.50159439867299, 44.314666078934394], [-88.50198650097221, 44.31470148854428], [-88.50194914589163, 44.315102407473944]]]}}, {"type": "Feature", "properties": {"name": ".82 Plot 33 internal", "plot_num": 33, "acres": 0.82}, "geometry": {"type": "Polygon", "coordinates": [[[-88.5002531663846, 44.314213079410706], [-88.50025424251373, 44.31419690980955], [-88.50025397398095, 44.314196899802376], [-88.50025424251373, 44.314191519942504], [-88.50092592644496, 44.31420948616601], [-88.50105273032732, 44.314213079410706], [-88.50105274492773, 44.31421287831088], [-88.50106026323122, 44.314213079410706], [-88.501, 44.3147089471793], [-88.50023164380202, 44.3146442687747]]]}}, {"type": "Feature", "properties": {"name": ".7 Plot 34 internal", "plot_num": 34, "acres": 0.7}, "geometry": {"type": "Polygon", "coordinates": [[[-88.50105274492773, 44.31421287831088], [-88.50092592644496, 44.31420948616601], [-88.50029190703324, 44.314191519942504], [-88.50029291142043, 44.31417283507007], [-88.50032203864885, 44.31378727991376], [-88.50031366183315, 44.313786809820094], [-88.50031450574494, 44.31377111031261], [-88.50108286194292, 44.31379805964786]]]}}, {"type": "Feature", "properties": {"name": ".72 Plot 35 internal", "plot_num": 35, "acres": 0.73}, "geometry": {"type": "Polygon", "coordinates": [[[-88.50031450574494, 44.31377111031261], [-88.50033710445665, 44.31332914121452], [-88.50106026323122, 44.31335070068271], [-88.50109039484683, 44.31379266978081]]]}}, {"type": "Feature", "properties": {"name": ".83 Plot 36 external", "plot_num": 36, "acres": 0.81}, "geometry": {"type": "Polygon", "coordinates": [[[-88.50033679929359, 44.313324402419056], [-88.50033710445665, 44.31331836148041], [-88.49957642579905, 44.31329701743793], [-88.49958381406647, 44.31303269852677], [-88.50106026323122, 44.313108156665464], [-88.50105273032732, 44.31334531081566]]]}}, {"type": "Feature", "properties": {"name": ".71 Plot 37 internal", "plot_num": 37, "acres": 0.71}, "geometry": {"type": "Polygon", "coordinates": [[[-88.49953108373916, 44.31416996047431], [-88.50025397398095, 44.314196899802376], [-88.5002531663846, 44.314213079410706], [-88.50022411089812, 44.31464965864175], [-88.49953108373916, 44.3146334890406]]]}}, {"type": "Feature", "properties": {"name": ".69 Plot 38 internal", "plot_num": 38, "acres": 0.69}, "geometry": {"type": "Polygon", "coordinates": [[[-88.50031366183315, 44.313786809820094], [-88.50029291142043, 44.31417283507007], [-88.50029190703324, 44.314186130075456], [-88.49953108373916, 44.31416996047431], [-88.49955368245087, 44.31374416097736]]]}}, {"type": "Feature", "properties": {"name": ".7 Plot 39 internal", "plot_num": 39, "acres": 0.74}, "geometry": {"type": "Polygon", "coordinates": [[[-88.50031450574494, 44.31376572044556], [-88.49955368245087, 44.31374416097736], [-88.49956874825867, 44.31329680201222], [-88.49957642579905, 44.31329701743793], [-88.49957628116256, 44.313302191879266], [-88.50033679929359, 44.313324402419056]]]}}, {"type": "Feature", "properties": {"name": "1.04 Plot 40 internal ", "plot_num": 40, "acres": 1.04}, "geometry": {"type": "Polygon", "coordinates": [[[-88.49852916701363, 44.3140575050835], [-88.49940302437282, 44.31409450233561], [-88.49938042566112, 44.3146334890406], [-88.49849907590462, 44.3146011498383]]]}}, {"type": "Feature", "properties": {"name": ".75 plot 41 ", "plot_num": 41, "acres": 0.76}, "geometry": {"type": "Polygon", "coordinates": [[[-88.49852920752022, 44.31405677326626], [-88.49813006338698, 44.31403878324643], [-88.49814502942122, 44.31376572044556], [-88.49814502942122, 44.31377111031261], [-88.49874935452077, 44.313791458574734], [-88.49941055727673, 44.31381961911606], [-88.49940302437282, 44.31409450233561]]]}}, {"type": "Feature", "properties": {"name": ".75 Plot 42 east side", "plot_num": 42, "acres": 0.77}, "geometry": {"type": "Polygon", "coordinates": [[[-88.49874935452077, 44.313791458574734], [-88.49814502942122, 44.31376572044556], [-88.49814502942122, 44.31349622709306], [-88.49944068889234, 44.313539346029465], [-88.49942562308453, 44.31381422924901]]]}}, {"type": "Feature", "properties": {"name": ".75 Plot 43 eastside", "plot_num": 43, "acres": 0.74}, "geometry": {"type": "Polygon", "coordinates": [[[-88.49944068889234, 44.31353395616241], [-88.49814502942122, 44.31349083722601], [-88.49814502942122, 44.313215954006466], [-88.49943315598843, 44.31328602227811]]]}}, {"type": "Feature", "properties": {"name": ".73 Plot 44 east side", "plot_num": 44, "acres": 0.73}, "geometry": {"type": "Polygon", "coordinates": [[[-88.49944822179624, 44.31328602227811], [-88.49815256232513, 44.313215954006466], [-88.49815256232513, 44.312957240388066], [-88.49944822179624, 44.31302730865972]]]}}, {"type": "Feature", "properties": {"name": "1 acre Plot 45", "plot_num": 45, "acres": 1.04}, "geometry": {"type": "Polygon", "coordinates": [[[-88.49757252872469, 44.314504132231406], [-88.49757252872469, 44.314013654329855], [-88.49813006338698, 44.31403878324643], [-88.49812996361342, 44.314040603665106], [-88.49852914498017, 44.31405750415065], [-88.4984840100968, 44.31458498023715]]]}}, {"type": "Feature", "properties": {"name": "1 acre Plot 46 ", "plot_num": 46, "acres": 1.01}, "geometry": {"type": "Polygon", "coordinates": [[[-88.4975649958208, 44.31400826446281], [-88.49755746291689, 44.314504132231406], [-88.49660078412137, 44.314423284225654], [-88.49658571831355, 44.31397053539346]]]}}, {"type": "Feature", "properties": {"name": " 1 acre Plot 47 ", "plot_num": 47, "acres": 1.0}, "geometry": {"type": "Polygon", "coordinates": [[[-88.49661584992917, 44.315188645346744], [-88.49660831702526, 44.31473589651455], [-88.49765539066762, 44.3148167445203], [-88.49765531839716, 44.31481735026859], [-88.49764785776371, 44.3148167445203], [-88.49762902550395, 44.315037729069346], [-88.4976026603403, 44.3152587136184]]]}}, {"type": "Feature", "properties": {"name": "1 Acre Plot 48 ", "plot_num": 48, "acres": 1.01}, "geometry": {"type": "Polygon", "coordinates": [[[-88.49762902550395, 44.315037729069346], [-88.49765531839716, 44.31481735026859], [-88.49870999721387, 44.3149029823931], [-88.49867986559825, 44.315323392023], [-88.4976101932442, 44.3152587136184]]]}}, {"type": "Feature", "properties": {"name": ".71 Plot 49 ", "plot_num": 49, "acres": 0.71}, "geometry": {"type": "Polygon", "coordinates": [[[-88.49867986559825, 44.315328781890045], [-88.49871753011776, 44.314892202658996], [-88.49947835341185, 44.3149676607977], [-88.49944068889234, 44.31537729069349]]]}}, {"type": "Feature", "properties": {"name": ".7 Plot 50 ", "plot_num": 50, "acres": 0.7}, "geometry": {"type": "Polygon", "coordinates": [[[-88.49944822179624, 44.315382680560546], [-88.49947835341185, 44.3149676607977], [-88.50029857529422, 44.315069960431735], [-88.5002955267403, 44.315107587346176], [-88.50026177541763, 44.31543118936399]]]}}, {"type": "Feature", "properties": {"name": ".7 Plot 51", "plot_num": 51, "acres": 0.69}, "geometry": {"type": "Polygon", "coordinates": [[[-88.5002955267403, 44.315107587346176], [-88.50029943993714, 44.315070068271645], [-88.50029857529422, 44.315069960431735], [-88.50029943993714, 44.31505928853755], [-88.50072881545954, 44.3150862378728], [-88.50115761113653, 44.31513468116807], [-88.50111945770321, 44.31548502036124], [-88.50026930832153, 44.31543118936399]]]}}, {"type": "Feature", "properties": {"name": "Park", "zone": true}, "geometry": {"type": "Polygon", "coordinates": [[[-88.50499741656532, 44.31481788032594], [-88.5060616842408, 44.31514472563266], [-88.50614376017133, 44.31353492379592]]]}}, {"type": "Feature", "properties": {"name": "Pond", "zone": true}, "geometry": {"type": "Polygon", "coordinates": [[[-88.50591323837517, 44.31518611504536], [-88.50495543541143, 44.31487180094046], [-88.50444289819669, 44.31545615477394], [-88.5052902415235, 44.31617389120446], [-88.5058602692798, 44.3161766404503]]]}}, {"type": "Feature", "properties": {"name": "Lift station/park/pond/4 plots", "marker": true}, "geometry": {"type": "Polygon", "coordinates": [[[-88.50321831784647, 44.31689640237758], [-88.50596511921029, 44.31709875963872], [-88.50614864548601, 44.31345845683264], [-88.50321831784647, 44.31689640237758]]]}}, {"type": "Feature", "properties": {"name": "Treeline", "marker": true}, "geometry": {"type": "Polygon", "coordinates": [[[-88.50551724517435, 44.31682579700868], [-88.5058382156221, 44.3167880746543], [-88.50586474141403, 44.31618435467356], [-88.50527669199553, 44.31616435268356], [-88.50444629294748, 44.31545525020576], [-88.50439027400124, 44.31551813135682], [-88.5052316776401, 44.31621913969425], [-88.50574696233548, 44.3162349360408], [-88.50573089237946, 44.31671386100283], [-88.50541992038106, 44.31674073688787], [-88.5052341773138, 44.31685954093703], [-88.50531552316212, 44.3170491069115], [-88.50550733818673, 44.31706438636765], [-88.50551724517435, 44.31682579700868]]]}}, {"type": "Feature", "properties": {"name": "(unnamed)", "marker": true}, "geometry": {"type": "Polygon", "coordinates": [[[-88.50615495571428, 44.31359308164217], [-88.50617299734613, 44.31336601499087], [-88.4979323652396, 44.31294562844425], [-88.49793389184326, 44.31390171936808], [-88.49639780195105, 44.3138204914485], [-88.496423694622, 44.31517727353434], [-88.50110919748354, 44.31549777795207], [-88.50109256038189, 44.31674711558355], [-88.5032175966593, 44.31689995476107], [-88.50615495571428, 44.31359308164217]]]}}, {"type": "Feature", "properties": {"name": "Setback off mayflower/south property", "marker": true}, "geometry": {"type": "Polygon", "coordinates": [[[-88.49642514830028, 44.3151769459724], [-88.49661456902854, 44.31518513893688], [-88.49658227372409, 44.31396853775278], [-88.49812883084608, 44.31404121466588], [-88.49815154098788, 44.31295442125847], [-88.49793270235241, 44.31294380327295], [-88.49793199143754, 44.31390004505333], [-88.49639676334931, 44.31381962702111], [-88.49642514830028, 44.3151769459724]]]}}, {"type": "Feature", "properties": {"name": ".49 north to south road direction", "marker": true}, "geometry": {"type": "Polygon", "coordinates": [[[-88.49958748023391, 44.31302961721492], [-88.4994450904183, 44.31302442294272], [-88.49938493755123, 44.314633184714], [-88.49953454797138, 44.31463379422077], [-88.49953243402165, 44.31450749294039], [-88.49953897836356, 44.31423492474664], [-88.49954807987486, 44.31383336496019], [-88.49958748023391, 44.31302961721492]]]}}]}