{"type": "FeatureCollection", "features": [{"type": "Feature", "properties": {"name": "culd de sac"}, "geometry": {"type": "Polygon", "coordinates": [[[-88.50438512327622, 44.31620302094777], [-88.50423871686225, 44.31655691186922], [-88.50399654086036, 44.316505619467144], [-88.50414294727432, 44.31615172854569]]]}}, {"type": "Feature", "properties": {"name": "Lift station / access road"}, "geometry": {"type": "Polygon", "coordinates": [[[-88.50525748033553, 44.31607914023234], [-88.5052125233541, 44.31590131473855], [-88.50608297785763, 44.3157886519626], [-88.50607986813016, 44.31597269872221]]]}}, {"type": "Feature", "properties": {"name": "WEst side road"}, "geometry": {"type": "Polygon", "coordinates": [[[-88.5038889964415, 44.316138609487965], [-88.50327052831625, 44.31583231126776], [-88.5034142702018, 44.31568372200184], [-88.50403273832704, 44.31599002022204]]]}}, {"type": "Feature", "properties": {"name": "south, west road"}, "geometry": {"type": "Polygon", "coordinates": [[[-88.50488839667294, 44.31399305033987], [-88.5054654075569, 44.31423460320369], [-88.50533786488332, 44.314390579492255], [-88.50476085399934, 44.31414902662844]]]}}, {"type": "Feature", "properties": {"name": "Road south side"}, "geometry": {"type": "Polygon", "coordinates": [[[-88.50398774420952, 44.313954180671075], [-88.50365549872646, 44.313915233315], [-88.5036963326999, 44.313736899377965], [-88.50402857818298, 44.313775846734046]]]}}, {"type": "Feature", "properties": {"name": "Internal road"}, "geometry": {"type": "Polygon", "coordinates": [[[-88.50006767538773, 44.315424240734814], [-88.49980858419033, 44.3154058276534], [-88.50096816183888, 44.31309302621557], [-88.5012048844558, 44.3131040014586], [-88.50123038982676, 44.31310518290394]]]}}]}